[{"OBJECT_NAME":"STARLINK-3582","OBJECT_ID":"2022-022X","EPOCH":"2026-03-09T22:56:15.036576","MEAN_MOTION":15.17112073,"ECCENTRICITY":0.00019498,"INCLINATION":53.2143,"RA_OF_ASC_NODE":3.953,"ARG_OF_PERICENTER":143.0365,"MEAN_ANOMALY":217.0766,"EPHEMERIS_TYPE":0,"CLASSIFICATION_TYPE":"U","NORAD_CAT_ID":51873,"ELEMENT_SET_NO":999,"REV_AT_EPOCH":22321,"BSTAR":0.0018716326,"MEAN_MOTION_DOT":0.00037432,"MEAN_MOTION_DDOT":0},{"OBJECT_NAME":"OBJECT AJ","OBJECT_ID":"2025-313AJ","EPOCH":"2026-03-09T22:21:21.807360","MEAN_MOTION":15.2138311,"ECCENTRICITY":0.00131371,"INCLINATION":97.4064,"RA_OF_ASC_NODE":145.2514,"ARG_OF_PERICENTER":356.4876,"MEAN_ANOMALY":3.6265,"EPHEMERIS_TYPE":0,"CLASSIFICATION_TYPE":"U","NORAD_CAT_ID":67280,"ELEMENT_SET_NO":999,"REV_AT_EPOCH":1085,"BSTAR":0.00031142343,"MEAN_MOTION_DOT":6.931e-5,"MEAN_MOTION_DDOT":0}]
